{
  "58302": {
    "name": "ICEYE-58302",
    "line1": "1 58302U 23174AY  26076.94207148  .00028936  00000-0  61106-3 0  9996",
    "line2": "2 58302  97.3850 159.5025 0010887 165.4915 194.6648 15.45089131131228",
    "meta": {
      "display_name": "ICEYE-58302",
      "type": "sar",
      "swath_km": 5.0,
      "resolution_m": 1.0,
      "off_nadir_deg": 40,
      "altitude_km": 580.0,
      "priority": 10
    }
  },
  "58303": {
    "name": "PlanetScope-58303",
    "line1": "1 58303U 23174AZ  26076.94988692  .00031214  00000-0  42740-3 0  9993",
    "line2": "2 58303  97.3862 167.3071 0005168 110.8813 249.2996 15.57335923131754",
    "meta": {
      "display_name": "PlanetScope-58303",
      "type": "optical",
      "swath_km": 8.0,
      "resolution_m": 4.0,
      "off_nadir_deg": 0,
      "altitude_km": 525.0,
      "priority": 10
    }
  },
  "58304": {
    "name": "PlanetScope-58304",
    "line1": "1 58304U 23174BA  26076.91402686  .00024735  00000-0  44018-3 0  9995",
    "line2": "2 58304  97.3937 165.8956 0007250 117.9673 242.2313 15.50110753131592",
    "meta": {
      "display_name": "PlanetScope-58304",
      "type": "optical",
      "swath_km": 8.0,
      "resolution_m": 4.0,
      "off_nadir_deg": 0,
      "altitude_km": 525.0,
      "priority": 10
    }
  },
  "58306": {
    "name": "PlanetScope-58306",
    "line1": "1 58306U 23174BC  26076.92451579  .00028065  00000-0  45273-3 0  9997",
    "line2": "2 58306  97.3841 166.1135 0006065 120.4613 239.7239 15.52858851131674",
    "meta": {
      "display_name": "PlanetScope-58306",
      "type": "optical",
      "swath_km": 8.0,
      "resolution_m": 4.0,
      "off_nadir_deg": 0,
      "altitude_km": 525.0,
      "priority": 10
    }
  },
  "58307": {
    "name": "PlanetScope-58307",
    "line1": "1 58307U 23174BD  26076.54297660  .00035161  00000-0  50327-3 0  9996",
    "line2": "2 58307  97.3953 167.3347 0006598 115.8733 244.3203 15.56103121131657",
    "meta": {
      "display_name": "PlanetScope-58307",
      "type": "optical",
      "swath_km": 8.0,
      "resolution_m": 4.0,
      "off_nadir_deg": 0,
      "altitude_km": 525.0,
      "priority": 10
    }
  },
  "58308": {
    "name": "PlanetScope-58308",
    "line1": "1 58308U 23174BE  26076.46453373  .00026540  00000-0  44381-3 0  9997",
    "line2": "2 58308  97.3871 165.5671 0007362 110.8353 249.3688 15.51854208131588",
    "meta": {
      "display_name": "PlanetScope-58308",
      "type": "optical",
      "swath_km": 8.0,
      "resolution_m": 4.0,
      "off_nadir_deg": 0,
      "altitude_km": 525.0,
      "priority": 10
    }
  },
  "58309": {
    "name": "PlanetScope-58309",
    "line1": "1 58309U 23174BF  26076.97302392  .00025241  00000-0  43846-3 0  9990",
    "line2": "2 58309  97.3899 166.2437 0007631 123.3266 236.8718 15.50788411131641",
    "meta": {
      "display_name": "PlanetScope-58309",
      "type": "optical",
      "swath_km": 8.0,
      "resolution_m": 4.0,
      "off_nadir_deg": 0,
      "altitude_km": 525.0,
      "priority": 10
    }
  },
  "58313": {
    "name": "PlanetScope-58313",
    "line1": "1 58313U 23174BK  26076.72033012  .00116064  00000-0  13039-2 0  9992",
    "line2": "2 58313  97.3928 169.3729 0004751 101.7283 258.4508 15.62224242131812",
    "meta": {
      "display_name": "PlanetScope-58313",
      "type": "optical",
      "swath_km": 8.0,
      "resolution_m": 4.0,
      "off_nadir_deg": 0,
      "altitude_km": 525.0,
      "priority": 10
    }
  },
  "58316": {
    "name": "PlanetScope-58316",
    "line1": "1 58316U 23174BN  26076.80987241  .00035656  00000-0  50508-3 0  9996",
    "line2": "2 58316  97.3854 167.0025 0006409 115.8887 244.3029 15.56383581131700",
    "meta": {
      "display_name": "PlanetScope-58316",
      "type": "optical",
      "swath_km": 8.0,
      "resolution_m": 4.0,
      "off_nadir_deg": 0,
      "altitude_km": 525.0,
      "priority": 10
    }
  },
  "58318": {
    "name": "PlanetScope-58318",
    "line1": "1 58318U 23174BQ  26076.94963116  .00024570  00000-0  44163-3 0  9991",
    "line2": "2 58318  97.3933 165.7357 0007363 113.5364 246.6661 15.49826154131592",
    "meta": {
      "display_name": "PlanetScope-58318",
      "type": "optical",
      "swath_km": 8.0,
      "resolution_m": 4.0,
      "off_nadir_deg": 0,
      "altitude_km": 525.0,
      "priority": 10
    }
  },
  "58319": {
    "name": "PlanetScope-58319",
    "line1": "1 58319U 23174BR  26076.21137889  .00100418  00000-0  11236-2 0  9992",
    "line2": "2 58319  97.3892 167.4182 0003328 127.4655 232.6906 15.62389110131640",
    "meta": {
      "display_name": "PlanetScope-58319",
      "type": "optical",
      "swath_km": 8.0,
      "resolution_m": 4.0,
      "off_nadir_deg": 0,
      "altitude_km": 525.0,
      "priority": 10
    }
  },
  "58320": {
    "name": "PlanetScope-58320",
    "line1": "1 58320U 23174BS  26076.96515692  .00017415  00000-0  36486-3 0  9997",
    "line2": "2 58320  97.3858 163.5175 0007822 114.0102 246.1966 15.45456228131490",
    "meta": {
      "display_name": "PlanetScope-58320",
      "type": "optical",
      "swath_km": 8.0,
      "resolution_m": 4.0,
      "off_nadir_deg": 0,
      "altitude_km": 525.0,
      "priority": 10
    }
  },
  "58322": {
    "name": "PlanetScope-58322",
    "line1": "1 58322U 23174BU  26076.46772366  .00016785  00000-0  35588-3 0  9998",
    "line2": "2 58322  97.3894 163.0552 0008070 117.7908 242.4160 15.45111492131403",
    "meta": {
      "display_name": "PlanetScope-58322",
      "type": "optical",
      "swath_km": 8.0,
      "resolution_m": 4.0,
      "off_nadir_deg": 0,
      "altitude_km": 525.0,
      "priority": 10
    }
  },
  "58327": {
    "name": "PlanetScope-58327",
    "line1": "1 58327U 23174BZ  26076.98980957  .00017151  00000-0  36897-3 0  9999",
    "line2": "2 58327  97.3852 162.9493 0007895 132.3911 227.8007 15.44677483131464",
    "meta": {
      "display_name": "PlanetScope-58327",
      "type": "optical",
      "swath_km": 8.0,
      "resolution_m": 4.0,
      "off_nadir_deg": 0,
      "altitude_km": 525.0,
      "priority": 10
    }
  },
  "58328": {
    "name": "PlanetScope-58328",
    "line1": "1 58328U 23174CA  26076.68608143  .00018897  00000-0  36964-3 0  9994",
    "line2": "2 58328  97.4014 165.1113 0007638 125.6377 234.5585 15.47446178131505",
    "meta": {
      "display_name": "PlanetScope-58328",
      "type": "optical",
      "swath_km": 8.0,
      "resolution_m": 4.0,
      "off_nadir_deg": 0,
      "altitude_km": 525.0,
      "priority": 10
    }
  },
  "58329": {
    "name": "PlanetScope-58329",
    "line1": "1 58329U 23174CB  26076.99055418  .00031458  00000-0  41751-3 0  9998",
    "line2": "2 58329  97.3923 168.6312 0005901 130.5031 229.6740 15.58167191131781",
    "meta": {
      "display_name": "PlanetScope-58329",
      "type": "optical",
      "swath_km": 8.0,
      "resolution_m": 4.0,
      "off_nadir_deg": 0,
      "altitude_km": 525.0,
      "priority": 10
    }
  },
  "59100": {
    "name": "ICEYE-59100",
    "line1": "1 59100U 24043C   26076.94734534  .00005300  00000-0  31362-3 0  9994",
    "line2": "2 59100  97.8248 218.3203 0003166  57.5953 302.5583 15.11884592 97886",
    "meta": {
      "display_name": "ICEYE-59100",
      "type": "sar",
      "swath_km": 5.0,
      "resolution_m": 1.0,
      "off_nadir_deg": 40,
      "altitude_km": 580.0,
      "priority": 10
    }
  },
  "59102": {
    "name": "ICEYE-59102",
    "line1": "1 59102U 24043E   26076.93829310  .00003583  00000-0  25455-3 0  9999",
    "line2": "2 59102  97.8147 212.6362 0014514 320.8500  39.1675 15.05288397111350",
    "meta": {
      "display_name": "ICEYE-59102",
      "type": "sar",
      "swath_km": 5.0,
      "resolution_m": 1.0,
      "off_nadir_deg": 40,
      "altitude_km": 580.0,
      "priority": 10
    }
  },
  "59103": {
    "name": "ICEYE-59103",
    "line1": "1 59103U 24043F   26076.92216585  .00004656  00000-0  32331-3 0  9996",
    "line2": "2 59103  97.8214 213.5120 0005050 265.8313  94.2336 15.06051135111404",
    "meta": {
      "display_name": "ICEYE-59103",
      "type": "sar",
      "swath_km": 5.0,
      "resolution_m": 1.0,
      "off_nadir_deg": 40,
      "altitude_km": 580.0,
      "priority": 10
    }
  },
  "60480": {
    "name": "PlanetScope-60480",
    "line1": "1 60480U 24149N   26076.67759996  .00014871  00000-0  39146-3 0  9994",
    "line2": "2 60480  97.3769 159.6537 0003805 207.1653 152.9393 15.38640078 88221",
    "meta": {
      "display_name": "PlanetScope-60480",
      "type": "optical",
      "swath_km": 8.0,
      "resolution_m": 4.0,
      "off_nadir_deg": 0,
      "altitude_km": 525.0,
      "priority": 10
    }
  },
  "60481": {
    "name": "PlanetScope-60481",
    "line1": "1 60481U 24149P   26076.63751682  .00012547  00000-0  35359-3 0  9995",
    "line2": "2 60481  97.3800 159.1795 0002991 200.0682 160.0445 15.36567242 88179",
    "meta": {
      "display_name": "PlanetScope-60481",
      "type": "optical",
      "swath_km": 8.0,
      "resolution_m": 4.0,
      "off_nadir_deg": 0,
      "altitude_km": 525.0,
      "priority": 10
    }
  },
  "60483": {
    "name": "PlanetScope-60483",
    "line1": "1 60483U 24149R   26076.97278902  .00172479  00000-0  12514-2 0  9991",
    "line2": "2 60483  97.3699 163.0312 0006498 217.0607 143.0209 15.72863512 88467",
    "meta": {
      "display_name": "PlanetScope-60483",
      "type": "optical",
      "swath_km": 8.0,
      "resolution_m": 4.0,
      "off_nadir_deg": 0,
      "altitude_km": 525.0,
      "priority": 10
    }
  },
  "60484": {
    "name": "PlanetScope-60484",
    "line1": "1 60484U 24149S   26076.20368152  .00068910  00000-0  14098-2 0  9998",
    "line2": "2 60484  97.3752 159.1751 0006521 221.0079 139.0680 15.45860220 88153",
    "meta": {
      "display_name": "PlanetScope-60484",
      "type": "optical",
      "swath_km": 8.0,
      "resolution_m": 4.0,
      "off_nadir_deg": 0,
      "altitude_km": 525.0,
      "priority": 10
    }
  }
}